OBJECT_NAME,OBJECT_ID,EPOCH,MEAN_MOTION,ECCENTRICITY,INCLINATION,RA_OF_ASC_NODE,ARG_OF_PERICENTER,MEAN_ANOMALY,EPHEMERIS_TYPE,CLASSIFICATION_TYPE,NORAD_CAT_ID,ELEMENT_SET_NO,REV_AT_EPOCH,BSTAR,MEAN_MOTION_DOT,MEAN_MOTION_DDOT
KUIPER-00533,2026-140P,2026-06-26T16:00:03.000096,15.37929979,.0007529,51.8798,352.8830,249.0356,44.0208,0,U,69605,999,210,-.25952E-3,-.10226E-3,0
KUIPER-00534,2026-140Q,2026-06-26T16:00:03.000096,15.40098950,.0014659,51.8824,352.7456,195.0750,166.3371,0,U,69606,999,239,-.28591E-3,-.1207E-3,0
KUIPER-00537,2026-140R,2026-06-26T16:00:03.000096,15.35805300,.0008173,51.8819,353.0271,348.2463,236.5619,0,U,69607,999,236,.71822E-4,.2155E-4,0
KUIPER-00538,2026-140S,2026-06-26T16:00:03.000096,15.37281076,.0005378,51.8821,352.9286,265.9347,6.3044,0,U,69608,999,260,-.21198E-3,-.8252E-4,0
KUIPER-00540,2026-140T,2026-06-26T16:00:03.000096,15.36700591,.0005446,51.8826,352.9739,316.4585,294.4025,0,U,69609,999,209,-.26268E-3,-.9946E-4,0
KUIPER-00541,2026-140U,2026-06-26T16:00:03.000096,15.37924027,.0006948,51.8832,352.8957,244.5012,44.5424,0,U,69610,999,260,-.23787E-3,-.9403E-4,0
KUIPER-00542,2026-140V,2026-06-26T16:00:03.000096,15.38083951,.0007229,51.8798,352.8748,228.5101,68.6543,0,U,69611,999,170,-.22741E-3,-.9054E-4,0
KUIPER-00543,2026-140W,2026-06-26T16:00:03.000096,15.36399266,.0006706,51.8795,352.9881,333.2705,267.0666,0,U,69612,999,194,-.26904E-3,-.10084E-3,0
KUIPER-00544,2026-140X,2026-06-26T16:00:03.000096,15.37775929,.000642,51.8799,352.9005,244.4857,40.0347,0,U,69613,999,220,-.2268E-3,-.8941E-4,0
KUIPER-00546,2026-140Y,2026-06-26T16:00:03.000096,15.38458613,.0015263,51.8798,352.7484,193.3003,166.6003,0,U,69614,999,264,-.21156E-3,-.8585E-4,0
KUIPER-00547,2026-140Z,2026-06-26T16:00:03.000096,15.39084970,.0011502,51.8831,352.8147,213.3770,114.9287,0,U,69615,999,130,-.28265E-3,-.11535E-3,0
KUIPER-00549,2026-140AA,2026-06-26T16:00:03.000096,15.36922172,.0006165,51.8802,352.9551,308.6335,308.8299,0,U,69616,999,254,-.26582E-3,-.10132E-3,0
KUIPER-00550,2026-140AB,2026-06-26T16:00:03.000096,15.35301683,.0006469,51.8804,353.0377,355.7156,221.1838,0,U,69617,999,193,-.22536E-3,-.8226E-4,0
KUIPER-00551,2026-140AC,2026-06-26T16:00:03.000096,15.39577258,.0013463,51.8796,352.7775,205.6240,139.6582,0,U,69618,999,130,-.27897E-3,-.11583E-3,0
KUIPER-00554,2026-140AD,2026-06-26T16:00:03.000096,15.39218825,.0011861,51.8797,352.8047,214.1189,117.7493,0,U,69619,999,235,-.28204E-3,-.11562E-3,0
KUIPER-00555,2026-140AE,2026-06-26T16:00:03.000096,15.39443806,.0012507,51.8829,352.7922,207.0336,132.0022,0,U,69620,999,215,-.26528E-3,-.10983E-3,0
KUIPER-00556,2026-140AF,2026-06-26T16:00:03.000096,15.37876077,.0012629,51.8815,352.7907,195.8720,143.4940,0,U,69621,999,235,-.34803E-3,-.13577E-3,0
KUIPER-00557,2026-140AG,2026-06-26T16:00:03.000096,15.38798713,.0010585,51.8820,352.8325,222.2683,96.9725,0,U,69622,999,151,-.29661E-3,-.11969E-3,0
KUIPER-00560,2026-140AH,2026-06-26T16:00:03.000096,15.38430539,.0008733,51.8798,352.8566,229.1621,76.9796,0,U,69623,999,226,-.26307E-3,-.1053E-3,0
KUIPER-00561,2026-140AJ,2026-06-26T16:00:03.000096,15.38260561,.0008047,51.8832,352.8694,231.1597,70.6229,0,U,69624,999,247,-.27678E-3,-.10995E-3,0
KUIPER-00564,2026-140AK,2026-06-26T16:00:03.000096,15.38562800,.0009505,51.8821,352.8484,220.1072,91.2765,0,U,69625,999,193,-.27798E-3,-.11154E-3,0
KUIPER-00567,2026-140AL,2026-06-26T16:00:03.000096,15.38089809,.00133,51.8786,352.7776,198.2216,146.9791,0,U,69626,999,266,-.36204E-3,-.14208E-3,0
KUIPER-00573,2026-140AM,2026-06-26T16:00:03.000096,15.37218254,.0009958,51.8796,352.8330,211.2602,106.6913,0,U,69627,999,260,-.34766E-3,-.13266E-3,0
CENTISPACE-1 GROUP 05 OBJECT J,2026-138J,2026-06-26T11:03:07.708032,14.15852230,.0008375,55.1414,246.8966,299.4617,60.5521,0,U,69636,999,130,-.76558E-4,-.305E-5,0
