KUIPER-00533            
1 69605U 26140P   26177.66670139 -.00010226  00000+0 -25952-3 0  9998
2 69605  51.8798 352.8830 0007529 249.0356  44.0208 15.37929979  2109
KUIPER-00534            
1 69606U 26140Q   26177.66670139 -.00012070  00000+0 -28591-3 0  9990
2 69606  51.8824 352.7456 0014659 195.0750 166.3371 15.40098950  2393
KUIPER-00537            
1 69607U 26140R   26177.66670139  .00002155  00000+0  71822-4 0  9998
2 69607  51.8819 353.0271 0008173 348.2463 236.5619 15.35805300  2365
KUIPER-00538            
1 69608U 26140S   26177.66670139 -.00008252  00000+0 -21198-3 0  9995
2 69608  51.8821 352.9286 0005378 265.9347   6.3044 15.37281076  2605
KUIPER-00540            
1 69609U 26140T   26177.66670139 -.00009946  00000+0 -26268-3 0  9990
2 69609  51.8826 352.9739 0005446 316.4585 294.4025 15.36700591  2095
KUIPER-00541            
1 69610U 26140U   26177.66670139 -.00009403  00000+0 -23787-3 0  9993
2 69610  51.8832 352.8957 0006948 244.5012  44.5424 15.37924027  2606
KUIPER-00542            
1 69611U 26140V   26177.66670139 -.00009054  00000+0 -22741-3 0  9995
2 69611  51.8798 352.8748 0007229 228.5101  68.6543 15.38083951  1702
KUIPER-00543            
1 69612U 26140W   26177.66670139 -.00010084  00000+0 -26904-3 0  9996
2 69612  51.8795 352.9881 0006706 333.2705 267.0666 15.36399266  1946
KUIPER-00544            
1 69613U 26140X   26177.66670139 -.00008941  00000+0 -22680-3 0  9993
2 69613  51.8799 352.9005 0006420 244.4857  40.0347 15.37775929  2203
KUIPER-00546            
1 69614U 26140Y   26177.66670139 -.00008585  00000+0 -21156-3 0  9995
2 69614  51.8798 352.7484 0015263 193.3003 166.6003 15.38458613  2643
KUIPER-00547            
1 69615U 26140Z   26177.66670139 -.00011535  00000+0 -28265-3 0  9993
2 69615  51.8831 352.8147 0011502 213.3770 114.9287 15.39084970  1309
KUIPER-00549            
1 69616U 26140AA  26177.66670139 -.00010132  00000+0 -26582-3 0  9996
2 69616  51.8802 352.9551 0006165 308.6335 308.8299 15.36922172  2548
KUIPER-00550            
1 69617U 26140AB  26177.66670139 -.00008226  00000+0 -22536-3 0  9993
2 69617  51.8804 353.0377 0006469 355.7156 221.1838 15.35301683  1935
KUIPER-00551            
1 69618U 26140AC  26177.66670139 -.00011583  00000+0 -27897-3 0  9999
2 69618  51.8796 352.7775 0013463 205.6240 139.6582 15.39577258  1300
KUIPER-00554            
1 69619U 26140AD  26177.66670139 -.00011562  00000+0 -28204-3 0  9990
2 69619  51.8797 352.8047 0011861 214.1189 117.7493 15.39218825  2358
KUIPER-00555            
1 69620U 26140AE  26177.66670139 -.00010983  00000+0 -26528-3 0  9995
2 69620  51.8829 352.7922 0012507 207.0336 132.0022 15.39443806  2155
KUIPER-00556            
1 69621U 26140AF  26177.66670139 -.00013577  00000+0 -34803-3 0  9993
2 69621  51.8815 352.7907 0012629 195.8720 143.4940 15.37876077  2355
KUIPER-00557            
1 69622U 26140AG  26177.66670139 -.00011969  00000+0 -29661-3 0  9993
2 69622  51.8820 352.8325 0010585 222.2683  96.9725 15.38798713  1510
KUIPER-00560            
1 69623U 26140AH  26177.66670139 -.00010530  00000+0 -26307-3 0  9991
2 69623  51.8798 352.8566 0008733 229.1621  76.9796 15.38430539  2260
KUIPER-00561            
1 69624U 26140AJ  26177.66670139 -.00010995  00000+0 -27678-3 0  9999
2 69624  51.8832 352.8694 0008047 231.1597  70.6229 15.38260561  2476
KUIPER-00564            
1 69625U 26140AK  26177.66670139 -.00011154  00000+0 -27798-3 0  9991
2 69625  51.8821 352.8484 0009505 220.1072  91.2765 15.38562800  1933
KUIPER-00567            
1 69626U 26140AL  26177.66670139 -.00014208  00000+0 -36204-3 0  9997
2 69626  51.8786 352.7776 0013300 198.2216 146.9791 15.38089809  2661
KUIPER-00573            
1 69627U 26140AM  26177.66670139 -.00013266  00000+0 -34766-3 0  9992
2 69627  51.8796 352.8330 0009958 211.2602 106.6913 15.37218254  2609
CENTISPACE-1 GROUP 05 O*
1 69636U 26138J   26177.46050588 -.00000305  00000+0 -76558-4 0  9993
2 69636  55.1414 246.8966 0008375 299.4617  60.5521 14.15852230  1308
